{"type": "FeatureCollection", "features": [ {"type": "Feature", "properties": {"norad_id": 66365, "name": "STARLINK-35827", "group": "last-30-days", "lat": 53.056161993594, "lon": 55.9484946518645, "alt_km": 369.2340045687879, "timestamp": "2025-12-03T08:58:44.776103+00:00", "meta": {"OBJECT_NAME": "STARLINK-35827", "OBJECT_ID": "2025-254T", "EPOCH": "2025-12-03T04:00:01.998720", "MEAN_MOTION": 15.6456166, "ECCENTRICITY": 0.0001071, "INCLINATION": 53.1599, "RA_OF_ASC_NODE": 322.492, "ARG_OF_PERICENTER": 84.4155, "MEAN_ANOMALY": 279.5625, "EPHEMERIS_TYPE": 0, "CLASSIFICATION_TYPE": "U", "NORAD_CAT_ID": 66365, "ELEMENT_SET_NO": 999, "REV_AT_EPOCH": 535, "BSTAR": -0.023995, "MEAN_MOTION_DOT": -0.02065924, "MEAN_MOTION_DDOT": 0}, "tle": {"line1": "1 66365U 25254T   25337.16668980 -.02065924  00000+0 -23995-1 0  9996", "line2": "2 66365  53.1599 322.4920 0001071  84.4155 279.5625 15.64561660  5357"}}, "geometry": {"type": "Point", "coordinates": [55.9484946518645, 53.056161993594]}}, {"type": "Feature", "properties": {"norad_id": 66366, "name": "STARLINK-35845", "group": "last-30-days", "lat": 53.13294908249276, "lon": 52.750367625770195, "alt_km": 369.20315490307075, "timestamp": "2025-12-03T08:58:44.776113+00:00", "meta": {"OBJECT_NAME": "STARLINK-35845", "OBJECT_ID": "2025-254U", "EPOCH": "2025-12-03T04:00:01.998720", "MEAN_MOTION": 15.64572018, "ECCENTRICITY": 0.0001067, "INCLINATION": 53.1596, "RA_OF_ASC_NODE": 322.4951, "ARG_OF_PERICENTER": 87.583, "MEAN_ANOMALY": 274.4695, "EPHEMERIS_TYPE": 0, "CLASSIFICATION_TYPE": "U", "NORAD_CAT_ID": 66366, "ELEMENT_SET_NO": 999, "REV_AT_EPOCH": 538, "BSTAR": -0.024111, "MEAN_MOTION_DOT": -0.02075328, "MEAN_MOTION_DDOT": 0}, "tle": {"line1": "1 66366U 25254U   25337.16668980 -.02075328  00000+0 -24111-1 0  9997", "line2": "2 66366  53.1596 322.4951 0001067  87.5830 274.4695 15.64572018  5381"}}, "geometry": {"type": "Point", "coordinates": [52.750367625770195, 53.13294908249276]}}, {"type": "Feature", "properties": {"norad_id": 66367, "name": "STARLINK-35846", "group": "last-30-days", "lat": 52.89402736765213, "lon": 59.11660200180627, "alt_km": 369.2496087249565, "timestamp": "2025-12-03T08:58:44.776123+00:00", "meta": {"OBJECT_NAME": "STARLINK-35846", "OBJECT_ID": "2025-254V", "EPOCH": "2025-12-03T04:00:01.998720", "MEAN_MOTION": 15.64569472, "ECCENTRICITY": 0.0001063, "INCLINATION": 53.1597, "RA_OF_ASC_NODE": 322.4868, "ARG_OF_PERICENTER": 84.4888, "MEAN_ANOMALY": 281.3984, "EPHEMERIS_TYPE": 0, "CLASSIFICATION_TYPE": "U", "NORAD_CAT_ID": 66367, "ELEMENT_SET_NO": 999, "REV_AT_EPOCH": 533, "BSTAR": -0.024054, "MEAN_MOTION_DOT": -0.02070875, "MEAN_MOTION_DDOT": 0}, "tle": {"line1": "1 66367U 25254V   25337.16668980 -.02070875  00000+0 -24054-1 0  9996", "line2": "2 66367  53.1597 322.4868 0001063  84.4888 281.3984 15.64569472  5338"}}, "geometry": {"type": "Point", "coordinates": [59.11660200180627, 52.89402736765213]}}, {"type": "Feature", "properties": {"norad_id": 66368, "name": "STARLINK-34861", "group": "last-30-days", "lat": 27.491540688573554, "lon": 118.40229008274746, "alt_km": 342.28238718079956, "timestamp": "2025-12-03T08:58:44.776136+00:00", "meta": {"OBJECT_NAME": "STARLINK-34861", "OBJECT_ID": "2025-254W", "EPOCH": "2025-12-03T03:47:47.812128", "MEAN_MOTION": 15.74277028, "ECCENTRICITY": 0.0001417, "INCLINATION": 53.1571, "RA_OF_ASC_NODE": 322.4406, "ARG_OF_PERICENTER": 115.8687, "MEAN_ANOMALY": 244.2479, "EPHEMERIS_TYPE": 0, "CLASSIFICATION_TYPE": "U", "NORAD_CAT_ID": 66368, "ELEMENT_SET_NO": 999, "REV_AT_EPOCH": 417, "BSTAR": 0.0019006, "MEAN_MOTION_DOT": 0.00288564, "MEAN_MOTION_DDOT": 0}, "tle": {"line1": "1 66368U 25254W   25337.15819227  .00288564  00000+0  19006-2 0  9992", "line2": "2 66368  53.1571 322.4406 0001417 115.8687 244.2479 15.74277028  4170"}}, "geometry": {"type": "Point", "coordinates": [118.40229008274746, 27.491540688573554]}}, {"type": "Feature", "properties": {"norad_id": 66369, "name": "STARLINK-35795", "group": "last-30-days", "lat": 28.952698402846302, "lon": 116.86481543309492, "alt_km": 342.13766420854427, "timestamp": "2025-12-03T08:58:44.776147+00:00", "meta": {"OBJECT_NAME": "STARLINK-35795", "OBJECT_ID": "2025-254X", "EPOCH": "2025-12-03T03:48:17.399808", "MEAN_MOTION": 15.74225925, "ECCENTRICITY": 0.0001679, "INCLINATION": 53.1574, "RA_OF_ASC_NODE": 322.4428, "ARG_OF_PERICENTER": 114.5785, "MEAN_ANOMALY": 245.541, "EPHEMERIS_TYPE": 0, "CLASSIFICATION_TYPE": "U", "NORAD_CAT_ID": 66369, "ELEMENT_SET_NO": 999, "REV_AT_EPOCH": 417, "BSTAR": 0.0012893, "MEAN_MOTION_DOT": 0.0019289, "MEAN_MOTION_DDOT": 0}, "tle": {"line1": "1 66369U 25254X   25337.15853472  .00192890  00000+0  12893-2 0  9996", "line2": "2 66369  53.1574 322.4428 0001679 114.5785 245.5410 15.74225925  4171"}}, "geometry": {"type": "Point", "coordinates": [116.86481543309492, 28.952698402846302]}}, {"type": "Feature", "properties": {"norad_id": 66370, "name": "STARLINK-35824", "group": "last-30-days", "lat": 26.121588955769543, "lon": 119.79352439544962, "alt_km": 342.7522414189116, "timestamp": "2025-12-03T08:58:44.776157+00:00", "meta": {"OBJECT_NAME": "STARLINK-35824", "OBJECT_ID": "2025-254Y", "EPOCH": "2025-12-03T03:47:18.862944", "MEAN_MOTION": 15.74233763, "ECCENTRICITY": 0.0001377, "INCLINATION": 53.1574, "RA_OF_ASC_NODE": 322.4396, "ARG_OF_PERICENTER": 119.8255, "MEAN_ANOMALY": 240.2902, "EPHEMERIS_TYPE": 0, "CLASSIFICATION_TYPE": "U", "NORAD_CAT_ID": 66370, "ELEMENT_SET_NO": 999, "REV_AT_EPOCH": 417, "BSTAR": 0.0012401, "MEAN_MOTION_DOT": 0.00185389, "MEAN_MOTION_DDOT": 0}, "tle": {"line1": "1 66370U 25254Y   25337.15785721  .00185389  00000+0  12401-2 0  9999", "line2": "2 66370  53.1574 322.4396 0001377 119.8255 240.2902 15.74233763  4179"}}, "geometry": {"type": "Point", "coordinates": [119.79352439544962, 26.121588955769543]}}, {"type": "Feature", "properties": {"norad_id": 66371, "name": "STARLINK-35804", "group": "last-30-days", "lat": 23.233008774461283, "lon": 122.57995341028108, "alt_km": 343.42418283733423, "timestamp": "2025-12-03T08:58:44.776168+00:00", "meta": {"OBJECT_NAME": "STARLINK-35804", "OBJECT_ID": "2025-254Z", "EPOCH": "2025-12-03T03:46:20.354592", "MEAN_MOTION": 15.74230591, "ECCENTRICITY": 0.0001364, "INCLINATION": 53.1571, "RA_OF_ASC_NODE": 322.4338, "ARG_OF_PERICENTER": 104.0573, "MEAN_ANOMALY": 256.0598, "EPHEMERIS_TYPE": 0, "CLASSIFICATION_TYPE": "U", "NORAD_CAT_ID": 66371, "ELEMENT_SET_NO": 999, "REV_AT_EPOCH": 417, "BSTAR": 0.0012051, "MEAN_MOTION_DOT": 0.00180002, "MEAN_MOTION_DDOT": 0}, "tle": {"line1": "1 66371U 25254Z   25337.15718003  .00180002  00000+0  12051-2 0  9997", "line2": "2 66371  53.1571 322.4338 0001364 104.0573 256.0598 15.74230591  4170"}}, "geometry": {"type": "Point", "coordinates": [122.57995341028108, 23.233008774461283]}}, {"type": "Feature", "properties": {"norad_id": 66372, "name": "STARLINK-35821", "group": "last-30-days", "lat": 24.687037778109, "lon": 121.20089528864531, "alt_km": 343.3517152871309, "timestamp": "2025-12-03T08:58:44.776178+00:00", "meta": {"OBJECT_NAME": "STARLINK-35821", "OBJECT_ID": "2025-254AA", "EPOCH": "2025-12-03T03:46:49.741824", "MEAN_MOTION": 15.74227424, "ECCENTRICITY": 0.00014, "INCLINATION": 53.1574, "RA_OF_ASC_NODE": 322.4377, "ARG_OF_PERICENTER": 88.0238, "MEAN_ANOMALY": 272.0942, "EPHEMERIS_TYPE": 0, "CLASSIFICATION_TYPE": "U", "NORAD_CAT_ID": 66372, "ELEMENT_SET_NO": 999, "REV_AT_EPOCH": 417, "BSTAR": 0.0012915, "MEAN_MOTION_DOT": 0.00193237, "MEAN_MOTION_DDOT": 0}, "tle": {"line1": "1 66372U 25254AA  25337.15752016  .00193237  00000+0  12915-2 0  9993", "line2": "2 66372  53.1574 322.4377 0001400  88.0238 272.0942 15.74227424  4179"}}, "geometry": {"type": "Point", "coordinates": [121.20089528864531, 24.687037778109]}}, {"type": "Feature", "properties": {"norad_id": 66373, "name": "STARLINK-35809", "group": "last-30-days", "lat": 21.678572905582715, "lon": 124.01140605160687, "alt_km": 343.40843969735306, "timestamp": "2025-12-03T08:58:44.776188+00:00", "meta": {"OBJECT_NAME": "STARLINK-35809", "OBJECT_ID": "2025-254AB", "EPOCH": "2025-12-03T03:45:50.961312", "MEAN_MOTION": 15.74318257, "ECCENTRICITY": 0.0001788, "INCLINATION": 53.157, "RA_OF_ASC_NODE": 322.4317, "ARG_OF_PERICENTER": 83.1697, "MEAN_ANOMALY": 276.9526, "EPHEMERIS_TYPE": 0, "CLASSIFICATION_TYPE": "U", "NORAD_CAT_ID": 66373, "ELEMENT_SET_NO": 999, "REV_AT_EPOCH": 417, "BSTAR": 0.0024319, "MEAN_MOTION_DOT": 0.00373866, "MEAN_MOTION_DDOT": 0}, "tle": {"line1": "1 66373U 25254AB  25337.15683983  .00373866  00000+0  24319-2 0  9999", "line2": "2 66373  53.1570 322.4317 0001788  83.1697 276.9526 15.74318257  4170"}}, "geometry": {"type": "Point", "coordinates": [124.01140605160687, 21.678572905582715]}}, {"type": "Feature", "properties": {"norad_id": 66374, "name": "STARLINK-35831", "group": "last-30-days", "lat": 20.32103998717211, "lon": 125.22735320585875, "alt_km": 344.0281871574807, "timestamp": "2025-12-03T08:58:44.776198+00:00", "meta": {"OBJECT_NAME": "STARLINK-35831", "OBJECT_ID": "2025-254AC", "EPOCH": "2025-12-03T03:45:22.228128", "MEAN_MOTION": 15.74215871, "ECCENTRICITY": 0.000166, "INCLINATION": 53.1574, "RA_OF_ASC_NODE": 322.4292, "ARG_OF_PERICENTER": 93.0741, "MEAN_ANOMALY": 267.0468, "EPHEMERIS_TYPE": 0, "CLASSIFICATION_TYPE": "U", "NORAD_CAT_ID": 66374, "ELEMENT_SET_NO": 999, "REV_AT_EPOCH": 417, "BSTAR": 0.0011766, "MEAN_MOTION_DOT": 0.00175532, "MEAN_MOTION_DDOT": 0}, "tle": {"line1": "1 66374U 25254AC  25337.15650727  .00175532  00000+0  11766-2 0  9992", "line2": "2 66374  53.1574 322.4292 0001660  93.0741 267.0468 15.74215871  4170"}}, "geometry": {"type": "Point", "coordinates": [125.22735320585875, 20.32103998717211]}}]}